NORAD_CAT_ID,OBJECT_NAME,OBJECT_TYPE,EPOCH,MEAN_MOTION,ECCENTRICITY,INCLINATION,RA_OF_ASC_NODE,ARG_OF_PERICENTER,MEAN_ANOMALY,BSTAR,MEAN_MOTION_DOT,MEAN_MOTION_DDOT,TLE_LINE0,TLE_LINE1,TLE_LINE2,SEMIMAJOR_AXIS,PERIOD,APOGEE,PERIGEE,DECAYED
55281.0,STARLINK-5298,PAYLOAD,2023-06-30 15:08:26,14.98326171,0.0003102,70.0003,3.0786,269.5626,90.5178,-7.5953e-06,-1.84e-06,0.0,0 STARLINK-5298,1 55281U 23010N   23181.63086292 -.00000184  00000-0 -75953-5 0  9997,2 55281  70.0003   3.0786 0003102 269.5626  90.5178 14.98326171 25222,6950.205,96.107,574.226,569.914,0.0
55281.0,STARLINK-5298,PAYLOAD,2023-07-01 18:22:43,14.98329512,0.0003101,70.0004,0.2169,269.1279,90.9525,-2.0147e-05,-3.33e-06,0.0,0 STARLINK-5298,1 55281U 23010N   23182.76578209 -.00000333  00000-0 -20147-4 0  9996,2 55281  70.0004   0.2169 0003101 269.1279  90.9525 14.98329512 25396,6950.194,96.107,574.215,569.904,0.0
55281.0,STARLINK-5298,PAYLOAD,2023-07-02 21:37:00,14.98332072,0.0003131,70.0003,357.3553,269.14,90.9401,6.6201e-05,6.97e-06,0.0,0 STARLINK-5298,1 55281U 23010N   23183.90069745  .00000697  00000-0  66201-4 0  9995,2 55281  70.0003 357.3553 0003131 269.1400  90.9401 14.98332072 25564,6950.186,96.107,574.228,569.875,0.0
55281.0,STARLINK-5298,PAYLOAD,2023-07-03 21:39:01,14.98332693,0.0003079,70.0005,354.8307,268.3835,91.6971,3.8393e-05,3.65e-06,0.0,0 STARLINK-5298,1 55281U 23010N   23184.90209653  .00000365  00000-0  38393-4 0  9993,2 55281  70.0005 354.8307 0003079 268.3835  91.6971 14.98332693 25715,6950.185,96.107,574.19,569.91,0.0
55281.0,STARLINK-5298,PAYLOAD,2023-07-04 21:41:02,14.98330849,0.0002994,70.0007,352.3063,267.3494,92.7323,-2.1201e-05,-3.46e-06,0.0,0 STARLINK-5298,1 55281U 23010N   23185.90349808 -.00000346  00000-0 -21201-4 0  9992,2 55281  70.0007 352.3063 0002994 267.3494  92.7323 14.98330849 25864,6950.19,96.107,574.136,569.974,0.0
55281.0,STARLINK-5298,PAYLOAD,2023-07-06 10:32:07,14.98331081,0.0003149,70.0004,348.4338,269.0923,90.9875,1.0791e-05,3.6e-07,0.0,0 STARLINK-5298,1 55281U 23010N   23187.43897639  .00000036  00000-0  10791-4 0  9998,2 55281  70.0004 348.4338 0003149 269.0923  90.9875 14.98331081 26098,6950.19,96.107,574.243,569.866,0.0
55281.0,STARLINK-5298,PAYLOAD,2023-07-07 10:34:08,14.98327667,0.0003245,70.0001,345.9083,269.5039,90.5748,1.8426e-05,1.27e-06,0.0,0 STARLINK-5298,1 55281U 23010N   23188.44037724  .00000127  00000-0  18426-4 0  9995,2 55281  70.0001 345.9083 0003245 269.5039  90.5748 14.98327667 26241,6950.2,96.107,574.32,569.81,0.0
55281.0,STARLINK-5298,PAYLOAD,2023-07-08 18:36:49,14.98332514,0.0003262,70.0003,342.542,269.9112,90.1673,-1.0238e-05,-2.15e-06,0.0,0 STARLINK-5298,1 55281U 23010N   23189.77557453 -.00000215  00000-0 -10238-4 0  9991,2 55281  70.0003 342.5420 0003262 269.9112  90.1673 14.98332514 26448,6950.185,96.107,574.317,569.783,0.0
55281.0,STARLINK-5298,PAYLOAD,2023-07-09 18:38:50,14.9832742,0.000319,70.0007,340.0171,269.7983,90.281,-2.126e-05,-3.47e-06,0.0,0 STARLINK-5298,1 55281U 23010N   23190.77697861 -.00000347  00000-0 -21260-4 0  9994,2 55281  70.0007 340.0171 0003190 269.7983  90.2810 14.98327420 26592,6950.201,96.107,574.283,569.849,0.0
55281.0,STARLINK-5298,PAYLOAD,2023-07-10 13:52:27,14.98334098,0.0003213,70.0008,337.9972,269.6343,90.4447,4.9103e-05,4.93e-06,0.0,0 STARLINK-5298,1 55281U 23010N   23191.57809198  .00000493  00000-0  49103-4 0  9997,2 55281  70.0008 337.9972 0003213 269.6343  90.4447 14.98334098 26713,6950.18,96.107,574.278,569.812,0.0
55281.0,STARLINK-5298,PAYLOAD,2023-07-11 09:06:04,14.98328046,0.0003193,70.0009,335.9776,268.8343,91.245,1.9567e-05,1.4e-06,0.0,0 STARLINK-5298,1 55281U 23010N   23192.37921514  .00000140  00000-0  19567-4 0  9993,2 55281  70.0009 335.9776 0003193 268.8343  91.2450 14.98328046 26834,6950.199,96.107,574.283,569.845,0.0
55281.0,STARLINK-5298,PAYLOAD,2023-07-12 18:44:53,14.98332209,0.0003115,70.0014,332.4422,269.6975,90.3827,-1.9381e-05,-3.24e-06,0.0,0 STARLINK-5298,1 55281U 23010N   23193.78117243 -.00000324  00000-0 -19381-4 0  9995,2 55281  70.0014 332.4422 0003115 269.6975  90.3827 14.98332209 27042,6950.186,96.107,574.216,569.886,0.0
55281.0,STARLINK-5298,PAYLOAD,2023-07-13 18:46:54,14.98327513,0.0002906,70.0011,329.917,258.3182,101.7651,-4.9412e-06,-1.52e-06,0.0,0 STARLINK-5298,1 55281U 23010N   23194.78257468 -.00000152  00000-0 -49412-5 0  9998,2 55281  70.0011 329.9170 0002906 258.3182 101.7651 14.98327513 27192,6950.201,96.107,574.085,570.046,0.0
55281.0,STARLINK-5298,PAYLOAD,2023-07-14 17:12:46,14.98337412,0.0003383,70.0007,327.5611,270.4003,89.6769,2.9789e-05,2.62e-06,0.0,0 STARLINK-5298,1 55281U 23010N   23195.71720757  .00000262  00000-0  29789-4 0  9992,2 55281  70.0007 327.5611 0003383 270.4003  89.6769 14.98337412 27337,6950.17,96.107,574.386,569.684,0.0
55281.0,STARLINK-5298,PAYLOAD,2023-07-15 09:14:07,14.98329769,0.0003216,70.0009,325.8777,271.8746,88.2044,-1.9355e-05,-3.24e-06,0.0,0 STARLINK-5298,1 55281U 23010N   23196.38481287 -.00000324  00000-0 -19355-4 0  9997,2 55281  70.0009 325.8777 0003216 271.8746  88.2044 14.98329769 27435,6950.194,96.107,574.294,569.823,0.0
55281.0,STARLINK-5298,PAYLOAD,2023-07-15 20:27:03,14.98334391,0.0003232,70.0007,324.7,269.5609,90.518,8.6657e-05,9.41e-06,0.0,0 STARLINK-5298,1 55281U 23010N   23196.85212674  .00000941  00000-0  86657-4 0  9993,2 55281  70.0007 324.7000 0003232 269.5609  90.5180 14.98334391 27502,6950.179,96.107,574.291,569.798,0.0
55281.0,STARLINK-5298,PAYLOAD,2023-07-16 07:40:01,14.98324371,0.0003315,70.0009,323.5217,272.7098,87.3682,-3.6992e-05,-5.34e-06,0.0,0 STARLINK-5298,1 55281U 23010N   23197.31945664 -.00000534  00000-0 -36992-4 0  9994,2 55281  70.0009 323.5217 0003315 272.7098  87.3682 14.98324371 27576,6950.21,96.107,574.379,569.771,0.0
55281.0,STARLINK-5298,PAYLOAD,2023-07-16 18:52:57,14.98329331,0.0003289,70.0012,322.3438,276.8264,83.2521,-3.9358e-05,-5.63e-06,0.0,0 STARLINK-5298,1 55281U 23010N   23197.78677460 -.00000563  00000-0 -39358-4 0  9992,2 55281  70.0012 322.3438 0003289 276.8264  83.2521 14.98329331 27648,6950.195,96.107,574.346,569.774,0.0
55281.0,STARLINK-5298,PAYLOAD,2023-07-17 17:18:49,14.98334976,0.0003266,70.0008,319.9873,272.1042,87.9743,3.5909e-05,3.36e-06,0.0,0 STARLINK-5298,1 55281U 23010N   23198.72140816  .00000336  00000-0  35909-4 0  9991,2 55281  70.0008 319.9873 0003266 272.1042  87.9743 14.98334976 27789,6950.178,96.107,574.312,569.773,0.0
55281.0,STARLINK-5298,PAYLOAD,2023-07-18 10:56:18,14.98327153,0.0003204,70.001,318.1356,271.422,88.6572,3.2656e-05,2.97e-06,0.0,0 STARLINK-5298,1 55281U 23010N   23199.45577264  .00000297  00000-0  32656-4 0  9995,2 55281  70.0010 318.1356 0003204 271.4220  88.6572 14.98327153 27890,6950.202,96.107,574.294,569.84,0.0
55281.0,STARLINK-5298,PAYLOAD,2023-07-19 17:22:52,14.98321747,0.0003082,70.0018,314.9377,268.3086,91.772,-4.3649e-05,-6.14e-06,0.0,0 STARLINK-5298,1 55281U 23010N   23200.72422099 -.00000614  00000-0 -43649-4 0  9992,2 55281  70.0018 314.9377 0003082 268.3086  91.7720 14.98321747 28089,6950.218,96.108,574.225,569.941,0.0
55281.0,STARLINK-5298,PAYLOAD,2023-07-20 12:36:28,14.98331758,0.0003322,70.0014,312.9179,269.4066,90.6712,6.8122e-05,7.2e-06,0.0,0 STARLINK-5298,1 55281U 23010N   23201.52533100  .00000720  00000-0  68122-4 0  9996,2 55281  70.0014 312.9179 0003322 269.4066  90.6712 14.98331758 28206,6950.187,96.107,574.361,569.744,0.0
55281.0,STARLINK-5298,PAYLOAD,2023-07-24 06:20:00,14.98328209,0.0003659,70.0001,303.4932,272.3628,87.7112,-2.8634e-05,-4.35e-06,0.0,0 STARLINK-5298,1 55281U 23010N   23205.26389054 -.00000435  00000-0 -28634-4 0  9997,2 55281  70.0001 303.4932 0003659 272.3628  87.7112 14.98328209 29067,6950.198,96.107,574.607,569.52,0.0
55281.0,STARLINK-5298,PAYLOAD,2023-07-25 11:10:25,14.98320018,0.0002736,70.0002,300.4571,246.6975,113.3897,2.2767e-05,1.79e-06,0.0,0 STARLINK-5298,1 55281U 23010N   23206.46557464  .00000179  00000-0  22767-4 0  9996,2 55281  70.0002 300.4571 0002736 246.6975 113.3897 14.98320018 28940,6950.224,96.108,573.99,570.187,0.0
55281.0,STARLINK-5298,PAYLOAD,2023-07-26 08:00:09,14.98335706,0.000328,70.0011,298.2748,263.0548,97.0238,4.1241e-05,3.99e-06,0.0,0 STARLINK-5298,1 55281U 23010N   23207.33344504  .00000399  00000-0  41241-4 0  9994,2 55281  70.0011 298.2748 0003280 263.0548  97.0238 14.98335706 29379,6950.175,96.107,574.32,569.761,0.0
55281.0,STARLINK-5298,PAYLOAD,2023-07-26 17:36:56,14.98378029,0.0003675,70.0003,297.2633,265.4939,94.58,-0.00053965,-6.534e-05,0.0,0 STARLINK-5298,1 55281U 23010N   23207.73398755 -.00006534  00000-0 -53965-3 0  9999,2 55281  70.0003 297.2633 0003675 265.4939  94.5800 14.98378029 29136,6950.044,96.104,574.464,569.355,0.0
55281.0,STARLINK-5298,PAYLOAD,2023-07-27 16:02:51,14.98327352,0.0003353,70.0006,294.9086,264.8487,95.229,4.2986e-06,-4.2e-07,0.0,0 STARLINK-5298,1 55281U 23010N   23208.66864818 -.00000042  00000-0  42986-5 0  9990,2 55281  70.0006 294.9086 0003353 264.8487  95.2290 14.98327352 29278,6950.201,96.107,574.396,569.736,0.0
55281.0,STARLINK-5298,PAYLOAD,2023-07-27 19:15:07,14.98326838,0.0003744,69.9997,294.5709,268.4728,91.6002,-5.0671e-05,-6.98e-06,0.0,0 STARLINK-5298,1 55281U 23010N   23208.80216888 -.00000698  00000-0 -50671-4 0  9991,2 55281  69.9997 294.5709 0003744 268.4728  91.6002 14.98326838 29598,6950.203,96.107,574.67,569.466,0.0
55281.0,STARLINK-5298,PAYLOAD,2023-07-28 08:04:12,14.98327396,0.0003739,69.9994,293.2243,271.9623,88.1108,-0.00013161,-1.663e-05,0.0,0 STARLINK-5298,1 55281U 23010N   23209.33625117 -.00001663  00000-0 -13161-3 0  9994,2 55281  69.9994 293.2243 0003739 271.9623  88.1108 14.98327396 29678,6950.201,96.107,574.665,569.467,0.0
55281.0,STARLINK-5298,PAYLOAD,2023-07-28 17:40:59,14.98333791,0.0003627,69.9994,292.2142,271.63,88.4444,-4.782e-05,-6.64e-06,0.0,0 STARLINK-5298,1 55281U 23010N   23209.73680472 -.00000664  00000-0 -47820-4 0  9993,2 55281  69.9994 292.2142 0003627 271.6300  88.4444 14.98333791 29436,6950.181,96.107,574.567,569.525,0.0
